ONEWEB-0291             
1 49081U 21075G   24189.38686854  .00000060  00000+0  12107-3 0  9998
2 49081  87.9174 147.1893 0001849  84.8576 275.2767 13.17649494140136
ONEWEB-0293             
1 49082U 21075H   24189.41270792  .00000061  00000+0  12411-3 0  9992
2 49082  87.9180 147.1993 0001782  79.9218 280.2114 13.17649230140162
ONEWEB-0294             
1 49083U 21075J   24189.33268346 -.00000586  00000+0 -16640-2 0  9997
2 49083  87.8949 132.0237 0001396  73.8208 286.3074 13.12442774141467
ONEWEB-0295             
1 49084U 21075K   24189.86993998  .00000024  00000+0  28075-4 0  9996
2 49084  87.9182 147.0865 0001746  92.8529 267.2802 13.17647274141146
ONEWEB-0296             
1 49085U 21075L   24189.38947413  .00000045  00000+0  90860-4 0  9999
2 49085  87.8951 132.0138 0001345  92.6685 267.4597 13.12442759141478
ONEWEB-0297             
1 49086U 21075M   24189.87770769 -.00000214  00000+0 -63020-3 0  9999
2 49086  87.8959 131.9251 0002097  82.5701 277.5666 13.12445001143130
ONEWEB-0298             
1 49087U 21075N   24189.87317675  .00000025  00000+0  29999-4 0  9999
2 49087  87.9181 147.1043 0002101  88.4207 271.7165 13.17647673141209
