<?xml version="1.0" encoding="UTF-8"?>
<ndm xmlns:xsi="http://www.w3.org/2001/XMLSchema-instance" xsi:noNamespaceSchemaLocation="https://sanaregistry.org/r/ndmxml_unqualified/ndmxml-2.0.0-master-2.0.xsd">
<omm id="CCSDS_OMM_VERS" version="2.0">
<header><CREATION_DATE/><ORIGINATOR/></header><body><segment><metadata><OBJECT_NAME>ONEWEB-0291</OBJECT_NAME><OBJECT_ID>2021-075G</OBJECT_ID><CENTER_NAME>EARTH</CENTER_NAME><REF_FRAME>TEME</REF_FRAME><TIME_SYSTEM>UTC</TIME_SYSTEM><MEAN_ELEMENT_THEORY>SGP4</MEAN_ELEMENT_THEORY></metadata><data><meanElements><EPOCH>2024-07-07T09:17:05.441856</EPOCH><MEAN_MOTION>13.17649494</MEAN_MOTION><ECCENTRICITY>.0001849</ECCENTRICITY><INCLINATION>87.9174</INCLINATION><RA_OF_ASC_NODE>147.1893</RA_OF_ASC_NODE><ARG_OF_PERICENTER>84.8576</ARG_OF_PERICENTER><MEAN_ANOMALY>275.2767</MEAN_ANOMALY></meanElements><tleParameters><EPHEMERIS_TYPE>0</EPHEMERIS_TYPE><CLASSIFICATION_TYPE>U</CLASSIFICATION_TYPE><NORAD_CAT_ID>49081</NORAD_CAT_ID><ELEMENT_SET_NO>999</ELEMENT_SET_NO><REV_AT_EPOCH>14013</REV_AT_EPOCH><BSTAR>.12107E-3</BSTAR><MEAN_MOTION_DOT>.6E-6</MEAN_MOTION_DOT><MEAN_MOTION_DDOT>0</MEAN_MOTION_DDOT></tleParameters></data></segment></body></omm>
<omm id="CCSDS_OMM_VERS" version="2.0">
<header><CREATION_DATE/><ORIGINATOR/></header><body><segment><metadata><OBJECT_NAME>ONEWEB-0293</OBJECT_NAME><OBJECT_ID>2021-075H</OBJECT_ID><CENTER_NAME>EARTH</CENTER_NAME><REF_FRAME>TEME</REF_FRAME><TIME_SYSTEM>UTC</TIME_SYSTEM><MEAN_ELEMENT_THEORY>SGP4</MEAN_ELEMENT_THEORY></metadata><data><meanElements><EPOCH>2024-07-07T09:54:17.964288</EPOCH><MEAN_MOTION>13.17649230</MEAN_MOTION><ECCENTRICITY>.0001782</ECCENTRICITY><INCLINATION>87.9180</INCLINATION><RA_OF_ASC_NODE>147.1993</RA_OF_ASC_NODE><ARG_OF_PERICENTER>79.9218</ARG_OF_PERICENTER><MEAN_ANOMALY>280.2114</MEAN_ANOMALY></meanElements><tleParameters><EPHEMERIS_TYPE>0</EPHEMERIS_TYPE><CLASSIFICATION_TYPE>U</CLASSIFICATION_TYPE><NORAD_CAT_ID>49082</NORAD_CAT_ID><ELEMENT_SET_NO>999</ELEMENT_SET_NO><REV_AT_EPOCH>14016</REV_AT_EPOCH><BSTAR>.12411E-3</BSTAR><MEAN_MOTION_DOT>.61E-6</MEAN_MOTION_DOT><MEAN_MOTION_DDOT>0</MEAN_MOTION_DDOT></tleParameters></data></segment></body></omm>
<omm id="CCSDS_OMM_VERS" version="2.0">
<header><CREATION_DATE/><ORIGINATOR/></header><body><segment><metadata><OBJECT_NAME>ONEWEB-0294</OBJECT_NAME><OBJECT_ID>2021-075J</OBJECT_ID><CENTER_NAME>EARTH</CENTER_NAME><REF_FRAME>TEME</REF_FRAME><TIME_SYSTEM>UTC</TIME_SYSTEM><MEAN_ELEMENT_THEORY>SGP4</MEAN_ELEMENT_THEORY></metadata><data><meanElements><EPOCH>2024-07-07T07:59:03.850944</EPOCH><MEAN_MOTION>13.12442774</MEAN_MOTION><ECCENTRICITY>.0001396</ECCENTRICITY><INCLINATION>87.8949</INCLINATION><RA_OF_ASC_NODE>132.0237</RA_OF_ASC_NODE><ARG_OF_PERICENTER>73.8208</ARG_OF_PERICENTER><MEAN_ANOMALY>286.3074</MEAN_ANOMALY></meanElements><tleParameters><EPHEMERIS_TYPE>0</EPHEMERIS_TYPE><CLASSIFICATION_TYPE>U</CLASSIFICATION_TYPE><NORAD_CAT_ID>49083</NORAD_CAT_ID><ELEMENT_SET_NO>999</ELEMENT_SET_NO><REV_AT_EPOCH>14146</REV_AT_EPOCH><BSTAR>-.1664E-2</BSTAR><MEAN_MOTION_DOT>-.586E-5</MEAN_MOTION_DOT><MEAN_MOTION_DDOT>0</MEAN_MOTION_DDOT></tleParameters></data></segment></body></omm>
<omm id="CCSDS_OMM_VERS" version="2.0">
<header><CREATION_DATE/><ORIGINATOR/></header><body><segment><metadata><OBJECT_NAME>ONEWEB-0295</OBJECT_NAME><OBJECT_ID>2021-075K</OBJECT_ID><CENTER_NAME>EARTH</CENTER_NAME><REF_FRAME>TEME</REF_FRAME><TIME_SYSTEM>UTC</TIME_SYSTEM><MEAN_ELEMENT_THEORY>SGP4</MEAN_ELEMENT_THEORY></metadata><data><meanElements><EPOCH>2024-07-07T20:52:42.814272</EPOCH><MEAN_MOTION>13.17647274</MEAN_MOTION><ECCENTRICITY>.0001746</ECCENTRICITY><INCLINATION>87.9182</INCLINATION><RA_OF_ASC_NODE>147.0865</RA_OF_ASC_NODE><ARG_OF_PERICENTER>92.8529</ARG_OF_PERICENTER><MEAN_ANOMALY>267.2802</MEAN_ANOMALY></meanElements><tleParameters><EPHEMERIS_TYPE>0</EPHEMERIS_TYPE><CLASSIFICATION_TYPE>U</CLASSIFICATION_TYPE><NORAD_CAT_ID>49084</NORAD_CAT_ID><ELEMENT_SET_NO>999</ELEMENT_SET_NO><REV_AT_EPOCH>14114</REV_AT_EPOCH><BSTAR>.28075E-4</BSTAR><MEAN_MOTION_DOT>.24E-6</MEAN_MOTION_DOT><MEAN_MOTION_DDOT>0</MEAN_MOTION_DDOT></tleParameters></data></segment></body></omm>
<omm id="CCSDS_OMM_VERS" version="2.0">
<header><CREATION_DATE/><ORIGINATOR/></header><body><segment><metadata><OBJECT_NAME>ONEWEB-0296</OBJECT_NAME><OBJECT_ID>2021-075L</OBJECT_ID><CENTER_NAME>EARTH</CENTER_NAME><REF_FRAME>TEME</REF_FRAME><TIME_SYSTEM>UTC</TIME_SYSTEM><MEAN_ELEMENT_THEORY>SGP4</MEAN_ELEMENT_THEORY></metadata><data><meanElements><EPOCH>2024-07-07T09:20:50.564832</EPOCH><MEAN_MOTION>13.12442759</MEAN_MOTION><ECCENTRICITY>.0001345</ECCENTRICITY><INCLINATION>87.8951</INCLINATION><RA_OF_ASC_NODE>132.0138</RA_OF_ASC_NODE><ARG_OF_PERICENTER>92.6685</ARG_OF_PERICENTER><MEAN_ANOMALY>267.4597</MEAN_ANOMALY></meanElements><tleParameters><EPHEMERIS_TYPE>0</EPHEMERIS_TYPE><CLASSIFICATION_TYPE>U</CLASSIFICATION_TYPE><NORAD_CAT_ID>49085</NORAD_CAT_ID><ELEMENT_SET_NO>999</ELEMENT_SET_NO><REV_AT_EPOCH>14147</REV_AT_EPOCH><BSTAR>.9086E-4</BSTAR><MEAN_MOTION_DOT>.45E-6</MEAN_MOTION_DOT><MEAN_MOTION_DDOT>0</MEAN_MOTION_DDOT></tleParameters></data></segment></body></omm>
<omm id="CCSDS_OMM_VERS" version="2.0">
<header><CREATION_DATE/><ORIGINATOR/></header><body><segment><metadata><OBJECT_NAME>ONEWEB-0297</OBJECT_NAME><OBJECT_ID>2021-075M</OBJECT_ID><CENTER_NAME>EARTH</CENTER_NAME><REF_FRAME>TEME</REF_FRAME><TIME_SYSTEM>UTC</TIME_SYSTEM><MEAN_ELEMENT_THEORY>SGP4</MEAN_ELEMENT_THEORY></metadata><data><meanElements><EPOCH>2024-07-07T21:03:53.944416</EPOCH><MEAN_MOTION>13.12445001</MEAN_MOTION><ECCENTRICITY>.0002097</ECCENTRICITY><INCLINATION>87.8959</INCLINATION><RA_OF_ASC_NODE>131.9251</RA_OF_ASC_NODE><ARG_OF_PERICENTER>82.5701</ARG_OF_PERICENTER><MEAN_ANOMALY>277.5666</MEAN_ANOMALY></meanElements><tleParameters><EPHEMERIS_TYPE>0</EPHEMERIS_TYPE><CLASSIFICATION_TYPE>U</CLASSIFICATION_TYPE><NORAD_CAT_ID>49086</NORAD_CAT_ID><ELEMENT_SET_NO>999</ELEMENT_SET_NO><REV_AT_EPOCH>14313</REV_AT_EPOCH><BSTAR>-.6302E-3</BSTAR><MEAN_MOTION_DOT>-.214E-5</MEAN_MOTION_DOT><MEAN_MOTION_DDOT>0</MEAN_MOTION_DDOT></tleParameters></data></segment></body></omm>
<omm id="CCSDS_OMM_VERS" version="2.0">
<header><CREATION_DATE/><ORIGINATOR/></header><body><segment><metadata><OBJECT_NAME>ONEWEB-0298</OBJECT_NAME><OBJECT_ID>2021-075N</OBJECT_ID><CENTER_NAME>EARTH</CENTER_NAME><REF_FRAME>TEME</REF_FRAME><TIME_SYSTEM>UTC</TIME_SYSTEM><MEAN_ELEMENT_THEORY>SGP4</MEAN_ELEMENT_THEORY></metadata><data><meanElements><EPOCH>2024-07-07T20:57:22.471200</EPOCH><MEAN_MOTION>13.17647673</MEAN_MOTION><ECCENTRICITY>.0002101</ECCENTRICITY><INCLINATION>87.9181</INCLINATION><RA_OF_ASC_NODE>147.1043</RA_OF_ASC_NODE><ARG_OF_PERICENTER>88.4207</ARG_OF_PERICENTER><MEAN_ANOMALY>271.7165</MEAN_ANOMALY></meanElements><tleParameters><EPHEMERIS_TYPE>0</EPHEMERIS_TYPE><CLASSIFICATION_TYPE>U</CLASSIFICATION_TYPE><NORAD_CAT_ID>49087</NORAD_CAT_ID><ELEMENT_SET_NO>999</ELEMENT_SET_NO><REV_AT_EPOCH>14120</REV_AT_EPOCH><BSTAR>.29999E-4</BSTAR><MEAN_MOTION_DOT>.25E-6</MEAN_MOTION_DOT><MEAN_MOTION_DDOT>0</MEAN_MOTION_DDOT></tleParameters></data></segment></body></omm>

</ndm>
